KUIPER-00220            
1 67781U 26030T   26068.71280462  .00035785  00000+0  10498-2 0  9993
2 67781  51.8809 219.2195 0009050  53.9230 306.2592 15.34795258  5097
KUIPER-00222            
1 67782U 26030U   26069.16668981  .00034734  00000+0  11034-2 0  9990
2 67782  51.8817 217.3622 0017296  68.0162 118.3987 15.32179075  5016
KUIPER-00223            
1 67783U 26030V   26068.72136600  .00030225  00000+0  90645-3 0  9997
2 67783  51.8827 219.2782 0012824  59.0052 301.2192 15.34146211  5093
KUIPER-00225            
1 67784U 26030W   26068.69454315  .00025142  00000+0  71610-3 0  9993
2 67784  51.8808 219.1029 0004458  39.1442 320.9866 15.35937709  5099
KUIPER-00226            
1 67785U 26030X   26068.62629313  .00046834  00000+0  15530-2 0  9998
2 67785  51.8814 220.1252 0017713  64.2781 296.0030 15.30655594  5078
KUIPER-00259            
1 67786U 26030Y   26068.70784605  .00037736  00000+0  10952-2 0  9998
2 67786  51.8804 219.1883 0008587  48.4056 311.7664 15.35112170  5097
KUIPER-00260            
1 67787U 26030Z   26069.14055037  .00053999  00000+0  14890-2 0  9992
2 67787  51.8801 216.8427 0001172  40.1043 320.0030 15.36581313  5079
KUIPER-00262            
1 67788U 26030AA  26068.68113949  .00027576  00000+0  76511-3 0  9999
2 67788  51.8818 219.0179 0000353  64.0282 296.0741 15.36709745  5091
KUIPER-00266            
1 67789U 26030AB  26067.91293632  .00029701  00000+0  98220-3 0  9996
2 67789  51.8807 223.5904 0022313  72.5291 287.8129 15.30874235  4964
KUIPER-00268            
1 67790U 26030AC  26068.62668427  .00036094  00000+0  10186-2 0  9992
2 67790  51.8839 219.4073 0002948  35.5768 324.5415 15.36041233  5083
KUIPER-00270            
1 67791U 26030AD  26068.77956772  .00031543  00000+0  93017-3 0  9991
2 67791  51.8805 218.9166 0010680  56.4163 303.7841 15.34680420  5107
KUIPER-00274            
1 67792U 26030AE  26069.16668981  .00031348  00000+0  10700-2 0  9998
2 67792  51.8834 217.4957 0018103  72.5341  51.6959 15.29905125  4145
KUIPER-00275            
1 67793U 26030AF  26068.71162338  .00032535  00000+0  95700-3 0  9997
2 67793  51.8837 219.2226 0009337  52.8442 307.3396 15.34756533  5094
KUIPER-00276            
1 67794U 26030AG  26069.00003471 -.00002400  00000+0 -68063-4 0  9996
2 67794  51.8824 218.3289 0019136  67.2095 200.3087 15.30168296  4831
KUIPER-00279            
1 67795U 26030AH  26068.63787223  .00021889  00000+0  63535-3 0  9997
2 67795  51.8796 219.4677 0006492  47.8727 312.2810 15.35417463  5083
CREW DRAGON 12          
1 67796U 26031A   26069.15865510  .00009130  00000+0  17626-3 0  9998
2 67796  51.6324  70.0375 0007972 176.2903 183.8146 15.48557200556298
STARLINK-36800          
1 67797U 26032A   26069.13822289  .00159681  00000+0  10490-2 0  9992
2 67797  97.2851 255.6421 0001471  57.9886 302.1522 15.75246712  4853
