[{"OBJECT_NAME":"KUIPER-00220","OBJECT_ID":"2026-030T","EPOCH":"2026-03-09T17:06:26.319168","MEAN_MOTION":15.34795258,"ECCENTRICITY":0.00090502,"INCLINATION":51.8809,"RA_OF_ASC_NODE":219.2195,"ARG_OF_PERICENTER":53.923,"MEAN_ANOMALY":306.2592,"EPHEMERIS_TYPE":0,"CLASSIFICATION_TYPE":"U","NORAD_CAT_ID":67781,"ELEMENT_SET_NO":999,"REV_AT_EPOCH":509,"BSTAR":0.0010498333,"MEAN_MOTION_DOT":0.00035785,"MEAN_MOTION_DDOT":0},{"OBJECT_NAME":"KUIPER-00222","OBJECT_ID":"2026-030U","EPOCH":"2026-03-10T04:00:01.999584","MEAN_MOTION":15.32179075,"ECCENTRICITY":0.0017296,"INCLINATION":51.8817,"RA_OF_ASC_NODE":217.3622,"ARG_OF_PERICENTER":68.0162,"MEAN_ANOMALY":118.3987,"EPHEMERIS_TYPE":0,"CLASSIFICATION_TYPE":"U","NORAD_CAT_ID":67782,"ELEMENT_SET_NO":999,"REV_AT_EPOCH":501,"BSTAR":0.0011034,"MEAN_MOTION_DOT":0.00034734,"MEAN_MOTION_DDOT":0},{"OBJECT_NAME":"KUIPER-00223","OBJECT_ID":"2026-030V","EPOCH":"2026-03-09T17:18:46.022400","MEAN_MOTION":15.34146211,"ECCENTRICITY":0.00128242,"INCLINATION":51.8827,"RA_OF_ASC_NODE":219.2782,"ARG_OF_PERICENTER":59.0052,"MEAN_ANOMALY":301.2192,"EPHEMERIS_TYPE":0,"CLASSIFICATION_TYPE":"U","NORAD_CAT_ID":67783,"ELEMENT_SET_NO":999,"REV_AT_EPOCH":509,"BSTAR":0.00090645373,"MEAN_MOTION_DOT":0.00030225,"MEAN_MOTION_DDOT":0},{"OBJECT_NAME":"KUIPER-00225","OBJECT_ID":"2026-030W","EPOCH":"2026-03-09T16:40:08.528160","MEAN_MOTION":15.35937709,"ECCENTRICITY":0.00044584,"INCLINATION":51.8808,"RA_OF_ASC_NODE":219.1029,"ARG_OF_PERICENTER":39.1442,"MEAN_ANOMALY":320.9866,"EPHEMERIS_TYPE":0,"CLASSIFICATION_TYPE":"U","NORAD_CAT_ID":67784,"ELEMENT_SET_NO":999,"REV_AT_EPOCH":509,"BSTAR":0.00071609689,"MEAN_MOTION_DOT":0.00025142,"MEAN_MOTION_DDOT":0},{"OBJECT_NAME":"KUIPER-00226","OBJECT_ID":"2026-030X","EPOCH":"2026-03-09T15:01:51.726432","MEAN_MOTION":15.30655594,"ECCENTRICITY":0.0017713,"INCLINATION":51.8814,"RA_OF_ASC_NODE":220.1252,"ARG_OF_PERICENTER":64.2781,"MEAN_ANOMALY":296.003,"EPHEMERIS_TYPE":0,"CLASSIFICATION_TYPE":"U","NORAD_CAT_ID":67785,"ELEMENT_SET_NO":999,"REV_AT_EPOCH":507,"BSTAR":0.001553,"MEAN_MOTION_DOT":0.00046834,"MEAN_MOTION_DDOT":0},{"OBJECT_NAME":"KUIPER-00259","OBJECT_ID":"2026-030Y","EPOCH":"2026-03-09T16:59:17.898720","MEAN_MOTION":15.3511217,"ECCENTRICITY":0.00085878,"INCLINATION":51.8804,"RA_OF_ASC_NODE":219.1883,"ARG_OF_PERICENTER":48.4056,"MEAN_ANOMALY":311.7664,"EPHEMERIS_TYPE":0,"CLASSIFICATION_TYPE":"U","NORAD_CAT_ID":67786,"ELEMENT_SET_NO":999,"REV_AT_EPOCH":509,"BSTAR":0.0010952248,"MEAN_MOTION_DOT":0.00037736,"MEAN_MOTION_DDOT":0},{"OBJECT_NAME":"KUIPER-00260","OBJECT_ID":"2026-030Z","EPOCH":"2026-03-10T03:22:23.551968","MEAN_MOTION":15.36581313,"ECCENTRICITY":0.0001172,"INCLINATION":51.8801,"RA_OF_ASC_NODE":216.8427,"ARG_OF_PERICENTER":40.1043,"MEAN_ANOMALY":320.003,"EPHEMERIS_TYPE":0,"CLASSIFICATION_TYPE":"U","NORAD_CAT_ID":67787,"ELEMENT_SET_NO":999,"REV_AT_EPOCH":507,"BSTAR":0.001489,"MEAN_MOTION_DOT":0.00053999,"MEAN_MOTION_DDOT":0},{"OBJECT_NAME":"KUIPER-00262","OBJECT_ID":"2026-030AA","EPOCH":"2026-03-09T16:20:50.451936","MEAN_MOTION":15.36709745,"ECCENTRICITY":3.535e-5,"INCLINATION":51.8818,"RA_OF_ASC_NODE":219.0179,"ARG_OF_PERICENTER":64.0282,"MEAN_ANOMALY":296.0741,"EPHEMERIS_TYPE":0,"CLASSIFICATION_TYPE":"U","NORAD_CAT_ID":67788,"ELEMENT_SET_NO":999,"REV_AT_EPOCH":509,"BSTAR":0.00076510794,"MEAN_MOTION_DOT":0.00027576,"MEAN_MOTION_DDOT":0},{"OBJECT_NAME":"KUIPER-00266","OBJECT_ID":"2026-030AB","EPOCH":"2026-03-08T21:54:37.698048","MEAN_MOTION":15.30874235,"ECCENTRICITY":0.0022313,"INCLINATION":51.8807,"RA_OF_ASC_NODE":223.5904,"ARG_OF_PERICENTER":72.5291,"MEAN_ANOMALY":287.8129,"EPHEMERIS_TYPE":0,"CLASSIFICATION_TYPE":"U","NORAD_CAT_ID":67789,"ELEMENT_SET_NO":999,"REV_AT_EPOCH":496,"BSTAR":0.00098219753,"MEAN_MOTION_DOT":0.00029701,"MEAN_MOTION_DDOT":0},{"OBJECT_NAME":"KUIPER-00268","OBJECT_ID":"2026-030AC","EPOCH":"2026-03-09T15:02:25.520928","MEAN_MOTION":15.36041233,"ECCENTRICITY":0.0002948,"INCLINATION":51.8839,"RA_OF_ASC_NODE":219.4073,"ARG_OF_PERICENTER":35.5768,"MEAN_ANOMALY":324.5415,"EPHEMERIS_TYPE":0,"CLASSIFICATION_TYPE":"U","NORAD_CAT_ID":67790,"ELEMENT_SET_NO":999,"REV_AT_EPOCH":508,"BSTAR":0.0010186,"MEAN_MOTION_DOT":0.00036094,"MEAN_MOTION_DDOT":0},{"OBJECT_NAME":"KUIPER-00270","OBJECT_ID":"2026-030AD","EPOCH":"2026-03-09T18:42:34.651008","MEAN_MOTION":15.3468042,"ECCENTRICITY":0.00106803,"INCLINATION":51.8805,"RA_OF_ASC_NODE":218.9166,"ARG_OF_PERICENTER":56.4163,"MEAN_ANOMALY":303.7841,"EPHEMERIS_TYPE":0,"CLASSIFICATION_TYPE":"U","NORAD_CAT_ID":67791,"ELEMENT_SET_NO":999,"REV_AT_EPOCH":510,"BSTAR":0.00093017146,"MEAN_MOTION_DOT":0.00031543,"MEAN_MOTION_DDOT":0},{"OBJECT_NAME":"KUIPER-00274","OBJECT_ID":"2026-030AE","EPOCH":"2026-03-10T04:00:01.999584","MEAN_MOTION":15.29905125,"ECCENTRICITY":0.0018103,"INCLINATION":51.8834,"RA_OF_ASC_NODE":217.4957,"ARG_OF_PERICENTER":72.5341,"MEAN_ANOMALY":51.6959,"EPHEMERIS_TYPE":0,"CLASSIFICATION_TYPE":"U","NORAD_CAT_ID":67792,"ELEMENT_SET_NO":999,"REV_AT_EPOCH":414,"BSTAR":0.00107,"MEAN_MOTION_DOT":0.00031348,"MEAN_MOTION_DDOT":0},{"OBJECT_NAME":"KUIPER-00275","OBJECT_ID":"2026-030AF","EPOCH":"2026-03-09T17:04:44.260032","MEAN_MOTION":15.34756533,"ECCENTRICITY":0.0009337,"INCLINATION":51.8837,"RA_OF_ASC_NODE":219.2226,"ARG_OF_PERICENTER":52.8442,"MEAN_ANOMALY":307.3396,"EPHEMERIS_TYPE":0,"CLASSIFICATION_TYPE":"U","NORAD_CAT_ID":67793,"ELEMENT_SET_NO":999,"REV_AT_EPOCH":509,"BSTAR":0.00095700084,"MEAN_MOTION_DOT":0.00032535,"MEAN_MOTION_DDOT":0},{"OBJECT_NAME":"KUIPER-00276","OBJECT_ID":"2026-030AG","EPOCH":"2026-03-10T00:00:02.998944","MEAN_MOTION":15.30168296,"ECCENTRICITY":0.0019136,"INCLINATION":51.8824,"RA_OF_ASC_NODE":218.3289,"ARG_OF_PERICENTER":67.2095,"MEAN_ANOMALY":200.3087,"EPHEMERIS_TYPE":0,"CLASSIFICATION_TYPE":"U","NORAD_CAT_ID":67794,"ELEMENT_SET_NO":999,"REV_AT_EPOCH":483,"BSTAR":-6.8063e-5,"MEAN_MOTION_DOT":-2.4e-5,"MEAN_MOTION_DDOT":0},{"OBJECT_NAME":"KUIPER-00279","OBJECT_ID":"2026-030AH","EPOCH":"2026-03-09T15:18:32.160672","MEAN_MOTION":15.35417463,"ECCENTRICITY":0.0006492,"INCLINATION":51.8796,"RA_OF_ASC_NODE":219.4677,"ARG_OF_PERICENTER":47.8727,"MEAN_ANOMALY":312.281,"EPHEMERIS_TYPE":0,"CLASSIFICATION_TYPE":"U","NORAD_CAT_ID":67795,"ELEMENT_SET_NO":999,"REV_AT_EPOCH":508,"BSTAR":0.00063535,"MEAN_MOTION_DOT":0.00021889,"MEAN_MOTION_DDOT":0},{"OBJECT_NAME":"CREW DRAGON 12","OBJECT_ID":"2026-031A","EPOCH":"2026-03-10T03:48:27.800640","MEAN_MOTION":15.485572,"ECCENTRICITY":0.0007972,"INCLINATION":51.6324,"RA_OF_ASC_NODE":70.0375,"ARG_OF_PERICENTER":176.2903,"MEAN_ANOMALY":183.8146,"EPHEMERIS_TYPE":0,"CLASSIFICATION_TYPE":"U","NORAD_CAT_ID":67796,"ELEMENT_SET_NO":999,"REV_AT_EPOCH":55629,"BSTAR":0.00017626,"MEAN_MOTION_DOT":9.13e-5,"MEAN_MOTION_DDOT":0},{"OBJECT_NAME":"STARLINK-36800","OBJECT_ID":"2026-032A","EPOCH":"2026-03-10T03:19:02.457696","MEAN_MOTION":15.75246712,"ECCENTRICITY":0.0001471,"INCLINATION":97.2851,"RA_OF_ASC_NODE":255.6421,"ARG_OF_PERICENTER":57.9886,"MEAN_ANOMALY":302.1522,"EPHEMERIS_TYPE":0,"CLASSIFICATION_TYPE":"U","NORAD_CAT_ID":67797,"ELEMENT_SET_NO":999,"REV_AT_EPOCH":485,"BSTAR":0.001049,"MEAN_MOTION_DOT":0.00159681,"MEAN_MOTION_DDOT":0}]
